DIWATA-2B (PO-101)
1 43678U 18084H   26148.16287269  .00002503  00000-0  20449-3 0  9993
2 43678  98.1141 343.5074 0011693 238.1412 121.8673 15.00341298413213
ESHAIL-2
1 43700U 18090A   26148.15550877  .00000153  00000-0  00000+0 0  9999
2 43700   0.0141 292.3102 0001877 165.9829 229.2046  1.00274580 27476
K2SAT
1 43761U 18099D   26148.09818294  .00002502  00000-0  17330-3 0  9996
2 43761  97.4193 189.6608 0013039  59.5967 300.6547 15.06461838409089
AISTECHSAT-2
1 43768U 18099L   26148.08076389  .00007331  00000-0  39358-3 0  9992
2 43768  97.4308 196.5564 0005059  29.0438 331.1075 15.15211432409235
SNUSAT-2
1 43782U 18099AA  26148.14534537  .00010331  00000-0  46151-3 0  9992
2 43782  97.4077 201.8404 0010323  16.1804 343.9760 15.21486255409989
ITASAT-1
1 43786U 18099AE  26148.12646505  .00008285  00000-0  40077-3 0  9999
2 43786  97.4044 200.0409 0014036  67.1888 293.0827 15.18758346409861
EAGLET-1
1 43790U 18099AJ  26148.07795545  .00005430  00000-0  31270-3 0  9991
2 43790  97.4249 198.2803 0012490  60.6345 299.6132 15.12761174409292
ESEO
1 43792U 18099AL  26148.09072770  .00001423  00000-0  10654-3 0  9994
2 43792  97.3988 186.3399 0013515  48.9085 311.3306 15.04177513408787
MINXSS-2
1 43758U 18099A   26148.15898183  .00041365  00000-0  86333-3 0  9993
2 43758  97.4548 223.8779 0006176 344.3250  15.7806 15.45405045411034
FOX-1CLIFF (AO-95)
1 43770U 18099N   26148.14986822  .00014150  00000-0  54839-3 0  9992
2 43770  97.4402 208.4755 0009977  65.6905 294.5374 15.26212393410163
CORVUS-BC4
1 43767U 18099K   26148.07519245  .00005715  00000-0  33332-3 0  9993
2 43767  97.4080 191.6453 0009846  75.2390 284.9931 15.12304134409361
CZ-4B R/B
1 43656U 18081B   26148.20011126  .00000197  00000-0  76475-4 0  9996
2 43656  99.3690  64.5303 0204218 324.5975  34.1790 14.31857086396448
COSMOS 2504 [i]
1 40555U 15020D   26148.19660734  .00000221  00000-0  77867-4 0  9998
2 40555  82.5177 246.7458 0607325 328.7711  27.8631 13.61377619547477
MERIDIAN-4
1 37398U 11018A   26138.02059738  .00041093 -37349-6  10227-3 0  9990
2 37398  62.0831  77.6937 7523675 265.8691  14.0874  2.03894231110179
MERIDIAN-6
1 38995U 12063A   26147.67314073  .00000368  00000-0  00000+0 0  9993
2 38995  64.0852 358.2536 7342222 228.4188  40.4312  2.00675285 99094
MERIDIAN-7
1 40296U 14069A   26147.24701697  .00000246  00000-0  00000-0 0  9999
2 40296  63.4438 217.3911 6655722 270.7001  19.6062  2.00590810 84815
METOP-C
1 43689U 18087A   26148.14837329  .00000106  00000-0  68276-4 0  9992
2 43689  98.6653 208.1171 0000925 149.6266 210.4965 14.21505895391986
FENGYUN-3B
1 37214U 10059A   26148.22346163 -.00000125  00000-0 -41184-4 0  9992
2 37214  98.9637 194.1519 0021074 242.2499 198.2761 14.14835412804602
FENGYUN-3C
1 39260U 13052A   26148.18452013  .00000106  00000-0  74699-4 0  9992
2 39260  98.4976 122.9795 0015879  81.5212 278.7762 14.15749761655739
EWS-G1 (GOES-13)
1 29155U 06018A   26147.76919846 -.00000246  00000-0  00000-0 0  9990
2 29155   4.4822  76.6670 0061049 277.4657 325.9992  0.98790211 43041
FENGYUN-2H
1 43491U 18050A   26148.02355975 -.00000123  00000-0  00000+0 0  9998
2 43491   2.9818  79.3036 0001422 137.5801 116.6145  1.00272097 29231
FENGYUN-2G
1 40367U 14090A   26147.81355985 -.00000295  00000-0  00000-0 0  9995
2 40367   5.5899  73.0592 0003389 157.4621  47.0059  1.00281836 41798
INMARSAT 4-F1
1 28628U 05009A   26148.04305984  .00000038  00000-0  00000+0 0  9994
2 28628   5.1426  42.7293 0002983  23.7592  12.7042  1.00272795 77477
INMARSAT 4-F2
1 28899U 05044A   26147.96493029 -.00000255  00000-0  00000+0 0  9993
2 28899   5.0704  43.7370 0003282  21.5977 311.0474  1.00272044 75310
INMARSAT 4-F3
1 33278U 08039A   26148.16086384 -.00000135  00000-0  00000+0 0  9999
2 33278   4.2762  31.5495 0002805  39.9958 134.0803  1.00271731 46349
INMARSAT 4A-F4 (ALPHASAT)
1 39215U 13038A   26148.15533544  .00000140  00000-0  00000+0 0  9990
2 39215   2.9975   1.4853 0002013  63.4606 261.5361  1.00276431 43810
ASTROCAST
1 43798U 18099AS  26148.16875443  .00040455  00000-0  77177-3 0  9997
2 43798  97.4388 226.0626 0003565 286.4239  73.6620 15.48041273411330
JY1SAT (JO-97)
1 43803U 18099AX  26148.12611451  .00021294  00000-0  67077-3 0  9995
2 43803  97.4144 210.8998 0004837 358.2839   1.8385 15.32922693410558
SUOMI-100
1 43804U 18099AY  26148.10404733  .00015994  00000-0  58885-3 0  9994
2 43804  97.4206 208.5778 0009431   1.0064 359.1192 15.27888507410358
GEO-KOMPSAT-2A
1 43823U 18100A   26148.17570220  .00000000  00000-0  00000+0 0  9994
2 43823   0.0205  64.5160 0002577  18.2777 354.4345  1.00268066 27426
UWE-4
1 43880U 18111E   26147.75479861  .00037489  00000-0  80158-3 0  9998
2 43880  97.5857  75.2249 0009442  51.7759 308.4338 15.44686892407629
D-STAR ONE SPARROW
1 43881U 18111F   26147.81881555  .00133039  00000-0  11600-2 0  9996
2 43881  97.6132  86.8166 0006313  91.7026 268.4958 15.68552217408171
METEOR M2-2
1 44387U 19038A   26148.22447742  .00000551  00000-0  25800-3 0  9999
2 44387  98.9135 135.2164 0002388  79.5427 280.6020 14.24361168358459
MOMENTUS-X1
1 44408U 19038Y   26148.10911473  .00051221  00000-0  52519-3 0  9994
2 44408  97.6776 191.6825 0009488  93.2258 267.0086 15.64757241383414
MERIDIAN-8
1 44453U 19046A   26147.28124635 -.00000061  00000-0  00000-0 0  9999
2 44453  63.1109  53.4539 7070438 274.8061  14.7673  2.00603622 49921
TAURUS-1
1 44530U 19059C   26148.18992954  .00006165  00000-0  99354-3 0  9999
2 44530  98.6397 311.7829 0008431  23.7293 336.4299 14.71842807355701
GAOFEN 12-01
1 44819U 19082A   26148.20875613  .00000460  00000-0  66856-4 0  9994
2 44819  97.8103 155.1161 0002514  94.8713 265.2786 14.80439469351137
CAS-6 (TO-108)
1 44881U 19093C   26148.18728207  .00000525  00000-0  65271-4 0  9990
2 44881  97.7537 220.9068 0014281 147.3728 212.8373 14.86479987348442
ELEKTRO-L3
1 44903U 19095A   26148.16538883 -.00000088  00000-0  00000+0 0  9993
2 44903   0.2072  80.7829 0001307 334.2487 326.1510  1.00271523 23508
DOSAAF-85 (RS-44)
1 44909U 19096E   26148.06886306  .00000035  00000-0  94039-4 0  9996
2 44909  82.5225 353.0766 0217251 191.1533 168.4712 12.79748496299773
MERIDIAN-9
1 45254U 20015A   26147.53011513 -.00000206  00000-0  00000+0 0  9995
2 45254  65.5157 321.1656 6863873 278.2595  15.0422  2.00602120 45875
DEKART
1 46493U 20068H   26148.09123088  .00015358  00000-0  42836-3 0  9992
2 46493  97.8743 155.9300 0008889   9.4084 350.7324 15.36821967312689
NORBY
1 46494U 20068J   26148.11834993  .00028517  00000-0  55573-3 0  9993
2 46494  97.8631 162.3285 0005474 348.4538  11.6584 15.47493691313107
SALSAT (TUBSAT 22)
1 46495U 20068K   26147.93188407  .00009457  00000-0  33346-3 0  9991
2 46495  97.8850 149.7689 0010248  24.2273 335.9446 15.29457813312269
NETSAT-4
1 46504U 20068U   26147.96292959  .00020718  00000-0  46967-3 0  9999
2 46504  97.8608 154.5902 0006597  50.2682 309.9145 15.43101675312656
NETSAT-3
1 46505U 20068V   26147.95348395  .00021357  00000-0  50406-3 0  9998
2 46505  97.8655 152.8225 0006855  64.2607 295.9345 15.41884045312560
NETSAT-1
1 46506U 20068W   26147.91897883  .00015443  00000-0  47017-3 0  9999
2 46506  97.8743 147.3523 0006849  85.2249 274.9774 15.34078830312198
NETSAT-2
1 46507U 20068X   26147.96481419  .00026801  00000-0  56865-3 0  9990
2 46507  97.8619 154.4164 0005860  77.0847 283.1054 15.45017366312615
ARKTIKA-M1
1 47719U 21016A   26147.05808839 -.00000176  00000-0  00000-0 0  9994
2 47719  63.2350  60.6877 7281076 269.8410  14.7394  2.00630260 38361
UNISAT-7
1 47945U 21022P   26148.14881035  .00017499  00000-0  44150-3 0  9994
2 47945  97.3915  52.8713 0010583 137.0339 223.1735 15.39855832286776
CSS (TIANHE-1)
1 48274U 21035A   26148.13571720  .00017047  00000-0  20892-3 0  9996
2 48274  41.4686  83.9467 0010789 295.0251  64.9466 15.59890970290034
FENGYUN-4B
1 48808U 21047A   26148.02849977 -.00000322  00000-0  00000+0 0  9996
2 48808   0.1055  74.5112 0005333 290.0551 356.0142  1.00270351 18376
CUTE-LASP
1 49263U 21088D   26148.22977310  .00335889  00000-0  14828-2 0  9996
2 49263  97.4183 245.7085 0004537 260.9171  99.1585 15.83610643259385
JILIN-01 GAOFEN 2F
1 49338U 21097A   26148.19089295  .00003780  00000-0  25186-3 0  9993
2 49338  97.6670 274.4469 0017274 297.1340  62.8126 15.07592128253305
TEIKYOSAT-4 (OORURI)
1 49396U 21102B   26148.03469831  .00002207  00000-0  14158-3 0  9995
2 49396  97.3682 178.3016 0012225  10.8583 349.2908 15.09425000249681
Z-SAT
1 49399U 21102E   26148.16128919  .00005911  00000-0  29231-3 0  9994
2 49399  97.3342 184.0925 0015518 322.1669  37.8474 15.18092722250403
KOSEN-1
1 49402U 21102H   26148.08532434  .00008870  00000-0  34170-3 0  9996
2 49402  97.3203 190.6359 0011889 279.1002  80.8892 15.26514605250957
CAMSAT XW-3 (CAS-9)
1 50466U 21131B   26148.20058481  .00000519  00000-0  17385-3 0  9990
2 50466  98.4969 240.6995 0004831 145.0633 215.0874 14.41335378232239
GOES-18
1 51850U 22021A   26148.12325330  .00000105  00000-0  00000+0 0  9991
2 51850   0.0021  21.9100 0000603  84.6849  46.4413  1.00272407  6398
MERIDIAN-10
1 52145U 22030A   26147.53337946  .00000215  00000-0  00000+0 0  9991
2 52145  62.6764 143.0095 6778462 272.8724  17.6790  2.00615761 30612
BRO-6
1 52422U 22047AE  26148.18713843  .00017547  00000-0  32416-3 0  9999
2 52422  97.3408 238.8794 0005856 139.9350 220.2334 15.49121158228053
STEP CUBELAB-II
1 52897U 22065D   26148.16898403  .00000828  00000-0  16988-3 0  9999
2 52897  98.2197 292.1357 0009944  88.3349 271.8992 14.63265231208572
RANDEV
1 52898U 22065E   26148.17534352  .00000942  00000-0  19031-3 0  9990
2 52898  98.2182 292.4848 0009287  88.5129 271.7137 14.63651288208327
SNUGLITE-II
1 52899U 22065F   26148.14662009  .00001086  00000-0  21485-3 0  9995
2 52899  98.2176 293.0162 0008787  88.2724 271.9485 14.64303548208062
MIMAN
1 52900U 22065G   26147.92460595  .00000634  00000-0  13634-3 0  9994
2 52900  98.2233 290.5124 0008942  90.3920 269.8306 14.61817615207489
